STARLINK-11672 [DTC]    
1 63665U 25085B   25345.29011361  .00368347  00000+0  27261-2 0  9998
2 63665  42.9950  90.8341 0001864 159.9853 200.1088 15.71037659 36957
STARLINK-11664 [DTC]    
1 63666U 25085C   25345.00003471  .00013806  00000+0  11100-3 0  9994
2 63666  43.0001  93.4193 0001568 281.9525 259.8955 15.70819355  5943
STARLINK-11666 [DTC]    
1 63667U 25085D   25344.58551624  .00221348  00000+0  16773-2 0  9997
2 63667  42.9986  95.9042 0002479 307.6838  52.3804 15.70918900 36139
STARLINK-11663 [DTC]    
1 63668U 25085E   25345.33335648  .00074727  00000+0  58077-3 0  9999
2 63668  42.9999  91.3227 0001241 256.0514  48.2352 15.70834711  5992
STARLINK-11595 [DTC]    
1 63669U 25085F   25345.21073380  .00266745  00000+0  20067-2 0  9999
2 63669  42.9979  91.9849 0001875 279.5785  80.4871 15.70953966 36970
STARLINK-11599 [DTC]    
1 63670U 25085G   25344.37884078  .00301544  00000+0  22668-2 0  9997
2 63670  42.9999  96.9244 0003903 293.4276  66.6181 15.70862396 36192
STARLINK-11603 [DTC]    
1 63671U 25085H   25345.20010991  .00327294  00000+0  24420-2 0  9994
2 63671  42.9998  91.8995 0002764 249.4923 110.5648 15.70966894 36323
STARLINK-11644 [DTC]    
1 63672U 25085J   25344.68614173  .00314281  00000+0  23511-2 0  9990
2 63672  42.9984  94.9205 0001292 316.5166  43.5600 15.70942891 36242
STARLINK-11634 [DTC]    
1 63673U 25085K   25345.31665921  .00612207  00000+0  43673-2 0  9999
2 63673  42.9989  91.0463 0001966 231.4635 128.6057 15.71192931 36341
STARLINK-11656 [DTC]    
1 63674U 25085L   25344.61193278  .00168426  00000+0  12868-2 0  9994
2 63674  43.0038  95.2198 0001880 271.9404  88.1248 15.70893290 36233
STARLINK-11655 [DTC]    
1 63675U 25085M   25344.67020516  .00211658  00000+0  16063-2 0  9992
2 63675  43.0023  94.7910 0002468 277.3509  82.7078 15.70914326 36249
STARLINK-11661 [DTC]    
1 63676U 25085N   25344.79206105  .00178461  00000+0  13636-2 0  9993
2 63676  42.9988  93.9819 0002484 246.2354 113.8254 15.70857089 36916
STARLINK-33816          
1 63677U 25085P   25344.93026723  .00031042  00000+0  11320-2 0  9997
2 63677  42.9990 172.3283 0000900 274.5451  85.5298 15.27605032 35395
STARLINK-33861          
1 63678U 25085Q   25344.80463208  .00046473  00000+0  16871-2 0  9997
2 63678  43.0003 173.1037 0001277 267.8700  92.2006 15.27591871 35262
STARLINK-33850          
1 63679U 25085R   25345.24306419  .00024025  00000+0  87873-3 0  9997
2 63679  43.0025 170.3795 0000885 280.2719  79.8033 15.27617518 35336
STARLINK-33887          
1 63680U 25085S   25344.88528573  .00034671  00000+0  12627-2 0  9997
2 63680  42.9984 171.9845 0002321 257.8754 102.1838 15.27600573 35357
