[{"OBJECT_NAME":"STARLINK-11672 [DTC]","OBJECT_ID":"2025-085B","EPOCH":"2025-12-11T06:57:45.815904","MEAN_MOTION":15.71037659,"ECCENTRICITY":0.00018641,"INCLINATION":42.995,"RA_OF_ASC_NODE":90.8341,"ARG_OF_PERICENTER":159.9853,"MEAN_ANOMALY":200.1088,"EPHEMERIS_TYPE":0,"CLASSIFICATION_TYPE":"U","NORAD_CAT_ID":63665,"ELEMENT_SET_NO":999,"REV_AT_EPOCH":3695,"BSTAR":0.0027261029,"MEAN_MOTION_DOT":0.00368347,"MEAN_MOTION_DDOT":0},{"OBJECT_NAME":"STARLINK-11664 [DTC]","OBJECT_ID":"2025-085C","EPOCH":"2025-12-11T00:00:02.998944","MEAN_MOTION":15.70819355,"ECCENTRICITY":0.0001568,"INCLINATION":43.0001,"RA_OF_ASC_NODE":93.4193,"ARG_OF_PERICENTER":281.9525,"MEAN_ANOMALY":259.8955,"EPHEMERIS_TYPE":0,"CLASSIFICATION_TYPE":"U","NORAD_CAT_ID":63666,"ELEMENT_SET_NO":999,"REV_AT_EPOCH":594,"BSTAR":0.000111,"MEAN_MOTION_DOT":0.00013806,"MEAN_MOTION_DDOT":0},{"OBJECT_NAME":"STARLINK-11666 [DTC]","OBJECT_ID":"2025-085D","EPOCH":"2025-12-10T14:03:08.603136","MEAN_MOTION":15.709189,"ECCENTRICITY":0.0002479,"INCLINATION":42.9986,"RA_OF_ASC_NODE":95.9042,"ARG_OF_PERICENTER":307.6838,"MEAN_ANOMALY":52.3804,"EPHEMERIS_TYPE":0,"CLASSIFICATION_TYPE":"U","NORAD_CAT_ID":63667,"ELEMENT_SET_NO":999,"REV_AT_EPOCH":3613,"BSTAR":0.0016773,"MEAN_MOTION_DOT":0.00221348,"MEAN_MOTION_DDOT":0},{"OBJECT_NAME":"STARLINK-11663 [DTC]","OBJECT_ID":"2025-085E","EPOCH":"2025-12-11T08:00:01.999872","MEAN_MOTION":15.70834711,"ECCENTRICITY":0.00012413,"INCLINATION":42.9999,"RA_OF_ASC_NODE":91.3227,"ARG_OF_PERICENTER":256.0514,"MEAN_ANOMALY":48.2352,"EPHEMERIS_TYPE":0,"CLASSIFICATION_TYPE":"U","NORAD_CAT_ID":63668,"ELEMENT_SET_NO":999,"REV_AT_EPOCH":599,"BSTAR":0.00058076819,"MEAN_MOTION_DOT":0.00074727,"MEAN_MOTION_DDOT":0},{"OBJECT_NAME":"STARLINK-11595 [DTC]","OBJECT_ID":"2025-085F","EPOCH":"2025-12-11T05:03:27.400320","MEAN_MOTION":15.70953966,"ECCENTRICITY":0.0001875,"INCLINATION":42.9979,"RA_OF_ASC_NODE":91.9849,"ARG_OF_PERICENTER":279.5785,"MEAN_ANOMALY":80.4871,"EPHEMERIS_TYPE":0,"CLASSIFICATION_TYPE":"U","NORAD_CAT_ID":63669,"ELEMENT_SET_NO":999,"REV_AT_EPOCH":3697,"BSTAR":0.0020066684,"MEAN_MOTION_DOT":0.00266745,"MEAN_MOTION_DDOT":0},{"OBJECT_NAME":"STARLINK-11599 [DTC]","OBJECT_ID":"2025-085G","EPOCH":"2025-12-10T09:05:31.843392","MEAN_MOTION":15.70862396,"ECCENTRICITY":0.00039031,"INCLINATION":42.9999,"RA_OF_ASC_NODE":96.9244,"ARG_OF_PERICENTER":293.4276,"MEAN_ANOMALY":66.6181,"EPHEMERIS_TYPE":0,"CLASSIFICATION_TYPE":"U","NORAD_CAT_ID":63670,"ELEMENT_SET_NO":999,"REV_AT_EPOCH":3619,"BSTAR":0.0022668187,"MEAN_MOTION_DOT":0.00301544,"MEAN_MOTION_DDOT":0},{"OBJECT_NAME":"STARLINK-11603 [DTC]","OBJECT_ID":"2025-085H","EPOCH":"2025-12-11T04:48:09.496224","MEAN_MOTION":15.70966894,"ECCENTRICITY":0.00027644,"INCLINATION":42.9998,"RA_OF_ASC_NODE":91.8995,"ARG_OF_PERICENTER":249.4923,"MEAN_ANOMALY":110.5648,"EPHEMERIS_TYPE":0,"CLASSIFICATION_TYPE":"U","NORAD_CAT_ID":63671,"ELEMENT_SET_NO":999,"REV_AT_EPOCH":3632,"BSTAR":0.0024419744,"MEAN_MOTION_DOT":0.00327294,"MEAN_MOTION_DDOT":0},{"OBJECT_NAME":"STARLINK-11644 [DTC]","OBJECT_ID":"2025-085J","EPOCH":"2025-12-10T16:28:02.645472","MEAN_MOTION":15.70942891,"ECCENTRICITY":0.00012928,"INCLINATION":42.9984,"RA_OF_ASC_NODE":94.9205,"ARG_OF_PERICENTER":316.5166,"MEAN_ANOMALY":43.56,"EPHEMERIS_TYPE":0,"CLASSIFICATION_TYPE":"U","NORAD_CAT_ID":63672,"ELEMENT_SET_NO":999,"REV_AT_EPOCH":3624,"BSTAR":0.0023511296,"MEAN_MOTION_DOT":0.00314281,"MEAN_MOTION_DDOT":0},{"OBJECT_NAME":"STARLINK-11634 [DTC]","OBJECT_ID":"2025-085K","EPOCH":"2025-12-11T07:35:59.355744","MEAN_MOTION":15.71192931,"ECCENTRICITY":0.00019664,"INCLINATION":42.9989,"RA_OF_ASC_NODE":91.0463,"ARG_OF_PERICENTER":231.4635,"MEAN_ANOMALY":128.6057,"EPHEMERIS_TYPE":0,"CLASSIFICATION_TYPE":"U","NORAD_CAT_ID":63673,"ELEMENT_SET_NO":999,"REV_AT_EPOCH":3634,"BSTAR":0.0043672565,"MEAN_MOTION_DOT":0.00612207,"MEAN_MOTION_DDOT":0},{"OBJECT_NAME":"STARLINK-11656 [DTC]","OBJECT_ID":"2025-085L","EPOCH":"2025-12-10T14:41:10.992192","MEAN_MOTION":15.7089329,"ECCENTRICITY":0.000188,"INCLINATION":43.0038,"RA_OF_ASC_NODE":95.2198,"ARG_OF_PERICENTER":271.9404,"MEAN_ANOMALY":88.1248,"EPHEMERIS_TYPE":0,"CLASSIFICATION_TYPE":"U","NORAD_CAT_ID":63674,"ELEMENT_SET_NO":999,"REV_AT_EPOCH":3623,"BSTAR":0.0012868,"MEAN_MOTION_DOT":0.00168426,"MEAN_MOTION_DDOT":0},{"OBJECT_NAME":"STARLINK-11655 [DTC]","OBJECT_ID":"2025-085M","EPOCH":"2025-12-10T16:05:05.725824","MEAN_MOTION":15.70914326,"ECCENTRICITY":0.00024684,"INCLINATION":43.0023,"RA_OF_ASC_NODE":94.791,"ARG_OF_PERICENTER":277.3509,"MEAN_ANOMALY":82.7078,"EPHEMERIS_TYPE":0,"CLASSIFICATION_TYPE":"U","NORAD_CAT_ID":63675,"ELEMENT_SET_NO":999,"REV_AT_EPOCH":3624,"BSTAR":0.0016062603,"MEAN_MOTION_DOT":0.00211658,"MEAN_MOTION_DDOT":0},{"OBJECT_NAME":"STARLINK-11661 [DTC]","OBJECT_ID":"2025-085N","EPOCH":"2025-12-10T19:00:34.074720","MEAN_MOTION":15.70857089,"ECCENTRICITY":0.00024847,"INCLINATION":42.9988,"RA_OF_ASC_NODE":93.9819,"ARG_OF_PERICENTER":246.2354,"MEAN_ANOMALY":113.8254,"EPHEMERIS_TYPE":0,"CLASSIFICATION_TYPE":"U","NORAD_CAT_ID":63676,"ELEMENT_SET_NO":999,"REV_AT_EPOCH":3691,"BSTAR":0.0013635735,"MEAN_MOTION_DOT":0.00178461,"MEAN_MOTION_DDOT":0},{"OBJECT_NAME":"STARLINK-33816","OBJECT_ID":"2025-085P","EPOCH":"2025-12-10T22:19:35.088672","MEAN_MOTION":15.27605032,"ECCENTRICITY":9.0e-5,"INCLINATION":42.999,"RA_OF_ASC_NODE":172.3283,"ARG_OF_PERICENTER":274.5451,"MEAN_ANOMALY":85.5298,"EPHEMERIS_TYPE":0,"CLASSIFICATION_TYPE":"U","NORAD_CAT_ID":63677,"ELEMENT_SET_NO":999,"REV_AT_EPOCH":3539,"BSTAR":0.001132,"MEAN_MOTION_DOT":0.00031042,"MEAN_MOTION_DDOT":0},{"OBJECT_NAME":"STARLINK-33861","OBJECT_ID":"2025-085Q","EPOCH":"2025-12-10T19:18:40.211712","MEAN_MOTION":15.27591871,"ECCENTRICITY":0.00012774,"INCLINATION":43.0003,"RA_OF_ASC_NODE":173.1037,"ARG_OF_PERICENTER":267.87,"MEAN_ANOMALY":92.2006,"EPHEMERIS_TYPE":0,"CLASSIFICATION_TYPE":"U","NORAD_CAT_ID":63678,"ELEMENT_SET_NO":999,"REV_AT_EPOCH":3526,"BSTAR":0.0016871091,"MEAN_MOTION_DOT":0.00046473,"MEAN_MOTION_DDOT":0},{"OBJECT_NAME":"STARLINK-33850","OBJECT_ID":"2025-085R","EPOCH":"2025-12-11T05:50:00.746016","MEAN_MOTION":15.27617518,"ECCENTRICITY":8.853e-5,"INCLINATION":43.0025,"RA_OF_ASC_NODE":170.3795,"ARG_OF_PERICENTER":280.2719,"MEAN_ANOMALY":79.8033,"EPHEMERIS_TYPE":0,"CLASSIFICATION_TYPE":"U","NORAD_CAT_ID":63679,"ELEMENT_SET_NO":999,"REV_AT_EPOCH":3533,"BSTAR":0.00087872656,"MEAN_MOTION_DOT":0.00024025,"MEAN_MOTION_DDOT":0},{"OBJECT_NAME":"STARLINK-33887","OBJECT_ID":"2025-085S","EPOCH":"2025-12-10T21:14:48.687072","MEAN_MOTION":15.27600573,"ECCENTRICITY":0.0002321,"INCLINATION":42.9984,"RA_OF_ASC_NODE":171.9845,"ARG_OF_PERICENTER":257.8754,"MEAN_ANOMALY":102.1838,"EPHEMERIS_TYPE":0,"CLASSIFICATION_TYPE":"U","NORAD_CAT_ID":63680,"ELEMENT_SET_NO":999,"REV_AT_EPOCH":3535,"BSTAR":0.0012627,"MEAN_MOTION_DOT":0.00034671,"MEAN_MOTION_DDOT":0}]
